0 COSMOS 770
1 08325U 75089A   24268.54069439  .00000045  00000-0  80166-4 0  9993
2 08325  82.9545  72.5498 0027448 254.8406 165.5019 13.19778729360204
0 COSMOS 773
1 08343U 75094A   24268.52668213  .00000465  00000-0  17045-3 0  9993
2 08343  74.0535  72.0539 0010572  41.5913 318.6042 14.35556474561851
0 COSMOS 778
1 08419U 75103A   24268.63648976  .00000122  00000-0  11190-3 0  9999
2 08419  82.9760  38.8588 0022127 171.7787 199.4104 13.74759248451950
0 COSMOS 783
1 08458U 75112A   24268.47642869  .00000439  00000-0  16847-3 0  9994
2 08458  74.0572  74.8116 0012990 301.3205  58.6675 14.33388633549809
0 COSMOS 785
1 08473U 75116A   24268.46050469 -.00000033  00000-0  49648-4 0  9990
2 08473  65.0777 179.4890 0074979 167.0279 193.2733 13.82271459461867
0 METEOR 1-23
1 08519U 75124A   24268.61163204  .00000255  00000-0  13435-3 0  9998
2 08519  81.2475  19.5163 0012604 314.6074  45.4068 14.11163910507944
0 COSMOS 789
1 08591U 76005A   24268.61461677  .00000076  00000-0  65034-4 0  9996
2 08591  82.9732 309.0874 0030425 168.9876 357.9977 13.73124163438605
0 COSMOS 791
1 08607U 76008A   24268.39623649  .00000004  00000-0  12126-3 0  9995
2 08607  74.0515 257.7235 0053654 102.0629   7.1080 12.55029764229177
0 COSMOS 792
1 08608U 76008B   24268.28721957 -.00000016  00000-0 -28552-5 0  9992
2 08608  74.0520 102.4141 0035002 353.2401 179.4118 12.50406612221039
0 COSMOS 793
1 08609U 76008C   24268.54937230  .00000006  00000-0  14170-3 0  9991
2 08609  74.0594   3.7070 0046954 236.1356 134.7890 12.52630715224973
0 COSMOS 794
1 08610U 76008D   24268.55568036  .00000011  00000-0  17874-3 0  9998
2 08610  74.0556 201.2898 0026129 124.9524  47.6440 12.48143109217009
0 COSMOS 795
1 08611U 76008E   24268.49925035 -.00000006  00000-0  69977-4 0  9995
2 08611  74.0543 305.2317 0020649 269.3408  90.5275 12.45780109212689
0 COSMOS 796
1 08612U 76008F   24268.49684091 -.00000006  00000-0  68865-4 0  9995
2 08612  74.0542  59.3550 0027320  69.9671 347.2713 12.43155160208162
0 COSMOS 797
1 08613U 76008G   24268.48274240 -.00000005  00000-0  78113-4 0  9992
2 08613  74.0560 167.1927 0032342 220.6937 313.5208 12.40675462203787
0 COSMOS 798
1 08614U 76008H   24268.48932674 -.00000008  00000-0  53698-4 0  9999
2 08614  74.0530 294.0618 0047838   8.4553 109.5268 12.37747054198543
0 COSMOS 800
1 08645U 76011A   24268.63992406  .00000125  00000-0  12094-3 0  9996
2 08645  82.9734 219.4858 0020002 294.5465 244.3359 13.72121055434912
0 COSMOS 803
1 08688U 76014A   24268.38664605  .00011293  00000-0  21978-3 0  9994
2 08688  65.8409 260.9986 0001153  53.7245 306.4011 15.47929723693710
0 UME 1 (ISS 1)
1 08709U 76019A   24268.56162190  .00000054  00000-0  11784-3 0  9992
2 08709  69.6771  10.4299 0012997 314.6376  56.2956 13.71639267430617
0 COSMOS 807
1  8744U 76022A   24268.58670720  .00012073  00000-0  53810-3 0  9990
2  8744  82.9221 138.6831 0505446 115.2921 274.0422 14.50394671457753
0 METEOR 1-24
1 08799U 76032A   24268.56809824  .00000208  00000-0  10662-3 0  9993
2 08799  81.2538 123.1169 0033958 203.0729 156.8919 14.11737656494991
0 OPS 6431
1 08818U 76038A   24268.61096976  .00001893  00000-0  75751-3 0  9994
2 08818  63.3516  36.8148 0428137 173.7877 186.8732 13.90939242 19485
0 SSU 1
1 08835U 76038C   24268.52182073  .00000271  00000-0  16269-3 0  9995
2 08835  63.3537 198.2985 0450860 171.8252 189.0473 13.82469517271608
0 SSU 2
1 08836U 76038D   24268.51378717  .00000260  00000-0  15892-3 0  9996
2 08836  63.3535 200.1403 0449783 172.0666 188.7818 13.82323804264079
0 METEOR 1-25
1 08845U 76043A   24268.58277091  .00000226  00000-0  11702-3 0  9990
2 08845  81.2639 210.0509 0038444 283.4763  76.2126 14.11697366635944
0 P 76-5
1 08860U 76047A   24268.55382211  .00000261  00000-0  35998-3 0  9991
2 08860  99.9445  93.2018 0042064 159.2147 251.7182 13.68052374410158
0 COSMOS 823
1 08873U 76051A   24268.46924958  .00000123  00000-0  11558-3 0  9993
2 08873  82.9639 240.7898 0022691 168.0770 313.8072 13.73451488420567
0 SSU 3
1 08884U 76038J   24268.54513018  .00000777  00000-0  35024-3 0  9999
2 08884  63.3495 120.3400 0440573 174.0473 186.6066 13.87324566274583
0 COSMOS 825
1 08889U 76054A   24268.46467179 -.00000012  00000-0  24853-4 0  9991
2 08889  74.0007 151.2371 0058515  18.3914 157.3510 12.55727099213008
0 COSMOS 826
1 08890U 76054B   24268.52071609 -.00000001  00000-0  11532-3 0  9996
2 08890  74.0022 181.3539 0040385 281.5347 254.2620 12.38540937182792
0 COSMOS 827
1  8891U 76054C   24268.45705844  .00000004  00000-0  12405-3 0  9996
2  8891  73.9970 258.6037 0048360 152.3174 328.3101 12.53294159626821
0 COSMOS 828
1 08892U 76054D   24268.54094097 -.00000004  00000-0  76508-4 0  9994
2 08892  74.0050   0.9208 0036680 270.2183 100.8251 12.50972707204632
0 COSMOS 829
1 08893U 76054E   24268.30899007 -.00000020  00000-0 -29512-4 0  9995
2 08893  73.9974 102.1470 0025609  36.4338 136.7015 12.48665925200534
0 COSMOS 830
1 08894U 76054F   24268.61338800  .00000006  00000-0  15171-3 0  9996
2 08894  74.0010 207.5866 0015766 183.0886 350.6121 12.46246384196314
0 COSMOS 831
1 08895U 76054G   24268.51545515 -.00000006  00000-0  67251-4 0  9997
2 08895  74.0012 316.7117 0021015 345.6353 119.3473 12.43734034191886
0 COSMOS 832
1 08896U 76054H   24268.46845797 -.00000005  00000-0  76601-4 0  9995
2 08896  73.9996  61.8196 0023986 142.3200 274.6164 12.41309169187638
0 COSMOS 836
1 08923U 76061A   24268.47558352  .00000475  00000-0  18001-3 0  9992
2 08923  74.0535  48.0543 0016964  81.7520 278.5555 14.33712837519800
0 COSMOS 839
1 09011U 76067A   24268.51093075 -.00000007  00000-0  17027-3 0  9997
2 09011  65.8549  42.6665 0702468 173.2934 187.8093 12.32875135182380
0 COSMOS 841
1 09022U 76069A   24268.57319418  .00000542  00000-0  19384-3 0  9990
2 09022  74.0456  19.4320 0013829 258.4711 101.4890 14.36403854521819
0 COSMOS 842
1 09025U 76070A   24268.47459675  .00000076  00000-0  64546-4 0  9997
2 09025  82.9903 159.9310 0026643 221.7714 311.7356 13.74176068415461
0 NOAA 5
1 09057U 76077A   24268.53935997 -.00000010  00000-0  27047-3 0  9995
2 09057 102.2208 241.8306 0010139  53.3885  65.9881 12.37805940176446
0 COSMOS 846
1 09061U 76078A   24268.48295539  .00000099  00000-0  84799-4 0  9990
2 09061  82.9351 169.9166 0042081 139.4094  33.7957 13.76565151688454
0 OPS 5721
1 09415U 76091A   24268.46710126  .00000702  00000-0  30480-3 0  9998
2 09415  98.2877  78.7395 0016908 321.6956  38.3023 14.27057343262529
0 COSMOS 858
1 09443U 76098A   24268.60991876  .00000491  00000-0  18248-3 0  9998
2 09443  74.0483 232.9129 0013219 152.3642 207.8216 14.34730906508304
0 METEOR 1-26
1 09481U 76102A   24268.46068341  .00000166  00000-0  86614-4 0  9994
2 09481  81.2160 300.4204 0022081 252.2392 107.6369 14.10154170464777
0 COSMOS 860
1 09486U 76103A   24268.51325460 -.00000039  00000-0  47353-4 0  9991
2 09486  64.7007  57.6516 0060920 347.7296  12.2273 13.81357495795822
0 COSMOS 861
1 09494U 76104A   24268.48449145 -.00000016  00000-0  68016-4 0  9998
2 09494  64.8574 255.9755 0052163 339.6955  20.2028 13.81667191418805
0 COSMOS 864
1  9509U 76108A   24268.48886525  .00000106  00000-0  94073-4 0  9997
2  9509  82.9362 257.3374 0031375 104.9239  13.0134 13.75492569404004
0 COSMOS 871
1 09588U 76118A   24268.56607014  .00000004  00000-0  12285-3 0  9999
2 09588  74.0316 197.5737 0030377 221.7237 311.9689 12.55759538191093
0 COSMOS 872
1 09589U 76118B   24268.27772637 -.00000017  00000-0 -43703-5 0  9999
2 09589  74.0273  95.8832 0041256  93.2925  81.1874 12.58094264195150
0 COSMOS 873
1 09590U 76118C   24268.43429446  .00000003  00000-0  12626-3 0  9997
2 09590  74.0276 242.4386 0019714 119.8064   0.5746 12.46402418174760
0 COSMOS 874
1 09591U 76118D   24268.52325890 -.00000001  00000-0  10592-3 0  9995
2 09591  74.0343 345.7220 0033550 250.3991 121.1979 12.43989359170578
0 COSMOS 875
1 09592U 76118E   24268.52973090 -.00000008  00000-0  50072-4 0  9992
2 09592  74.0288 295.8132 0018250 325.5009 150.0089 12.53503748187070
0 COSMOS 876
1 09593U 76118F   24268.51886359 -.00000015  00000-0  23500-5 0  9998
2 09593  74.0274 100.2222 0047365  10.8839   4.4689 12.41314774165945
0 COSMOS 877
1 09594U 76118G   24268.61942321 -.00000003  00000-0  86241-4 0  9999
2 09594  74.0334  29.9881 0005632  79.9411 291.3055 12.51324618183374
0 COSMOS 878
1 09595U 76118H   24268.35489112 -.00000002  00000-0  92246-4 0  9996
2 09595  74.0293 134.1023 0006871  11.7876 164.4744 12.48931845179216
0 COSMOS 883
1 09610U 76122A   24268.56745676  .00000148  00000-0  13576-3 0  9990
2 09610  82.9574  12.2150 0034637 175.9904 184.1537 13.76256796398227
0 COSMOS 886
1 09634U 76126A   24268.38772133  .00000030  00000-0  57347-4 0  9993
2 09634  65.8332 286.1245 1082258 155.4061 210.2797 12.56444389200957
0 COSMOS 887
1 09637U 76128A   24268.49742304  .00000108  00000-0  94688-4 0  9992
2 09637  82.9355 269.3060 0044363 207.7395 317.8704 13.76403194396925
0 METEOR 2-2
1 09661U 77002A   24268.46820493  .00000295  00000-0  17888-3 0  9997
2 09661  81.2680 340.4923 0009380 324.3691  35.6849 14.03986378441825
0 COSMOS 890
1 09737U 77004A   24268.53295001  .00000098  00000-0  91658-4 0  9991
2 09737  82.9551 268.6029 0024845 234.6780 242.3615 13.71837677385867
0 COSMOS 894
1 09846U 77013A   24268.58379832  .00000136  00000-0  12818-3 0  9995
2 09846  82.9462 203.5856 0030135 162.8618  10.5492 13.74111913385562
0 METEOR 1-27
1 09903U 77024A   24268.60443167  .00000048  00000-0  20843-4 0  9997
2 09903  81.2722  28.0117 0038261 349.3639  10.6717 14.08567647438770
0 COSMOS 909
1 10010U 77036A   24268.50127045 -.00000034  00000-0  78779-4 0  9991
2 10010  65.8643 330.5038 0712111 304.0225  49.5075 12.30348140107720
0 COSMOS 911
1 10019U 77039A   24268.45107524  .00000101  00000-0  89332-4 0  9998
2 10019  82.9449 244.0220 0023394 306.6148 217.0052 13.75352575375153
